K06U53D 17.0   0.15 K167V 288.18241  314.40259   94.11142    2.40202  0.1492139  0.18219696   3.0815932  0 E2016-N49    47   4 2006-2016 0.35 M-v 38h MPCADO     0000          2006 UD53          20160707
K06U60T 16.2   0.15 K167V 342.93383   40.97033  315.30009    6.12457  0.3602055  0.19065128   2.9898053  1 E2016-N49   108   6 2006-2016 0.41 M-v 38h MPCADO     0400          2006 UT60          20160707
K06U89P 16.1   0.15 K167V 325.47728  162.06323  230.07371   12.60444  0.2469125  0.18959447   3.0009052  1 E2016-N49   124   6 2001-2016 0.47 M-v 38h MPCADO     0400          2006 UP89          20160707
K06UC5G 16.2   0.15 K167V 117.09216  298.70625  242.30820    7.69000  0.0243080  0.17410811   3.1763137  0 E2016-N49    55   6 2006-2016 0.29 M-v 38h MPCADO     0400          2006 UG125         20160706
K06UL0T 17.6   0.15 K167V 277.20068  165.86064  259.55152    4.48535  0.2079809  0.28350238   2.2949060  1 E2016-N49   149   5 2006-2016 0.44 M-v 38h MPCADO     0400          2006 UT210         20160707
K06UR7H 16.1   0.15 K167V  71.06349   33.74108  230.91318   10.36164  0.0124142  0.18488241   3.0516800  0 E2016-N49    54   7 2004-2016 0.27 M-v 38h MPCADO     0400          2006 UH277         20160707
K06V07T 18.2   0.15 K167V 306.75210  144.25685  232.77554    6.55060  0.1249510  0.28059452   2.3107339  0 E2016-N49    40   5 1999-2016 0.29 M-v 38h MPCADO     0400          2006 VT7           20160707
K06V23J 16.8   0.15 K167V 359.28372  110.61593  230.54084   12.64486  0.1884069  0.18722817   3.0261370  0 E2016-N49    37   6 2000-2016 0.36 M-v 38h MPCADO     0000          2006 VJ23          20160707
K06V72F 15.3   0.15 K167V 354.51024   85.74573  240.20630   14.09846  0.1009679  0.17745127   3.1362931  0 E2016-N49    71   5 2005-2016 0.34 M-v 38h MPCADO     0400          2006 VF72          20160708
K06VA5G 16.3   0.15 K167V 220.12533  215.68161  243.56934    9.67153  0.0484030  0.17429436   3.1740505  0 E2016-N49    36   5 2006-2016 0.28 M-v 38h MPCADO     0000          2006 VG105         20160707
K06VD9E 16.0   0.15 K167V 315.50565  155.79201  246.80455   10.17907  0.1812254  0.18591365   3.0403846  3 E2016-N49    61   3 2006-2016 0.45 M-v 38h MPCADO     0000          2006 VE139         20160707
K06VE3G 17.7   0.15 K167V 326.51100  256.65983  122.45345    4.77590  0.2655998  0.28777424   2.2721384  1 E2016-N49    48   6 2006-2016 0.41 M-v 38h MPCADO     0000          2006 VG143         20160707
K06WJ5E 17.8   0.15 K167V 326.37976  267.55053  102.73220    3.91638  0.2213672  0.28592964   2.2818999  1 E2016-N49    39   5 2004-2016 0.36 M-v 38h MPCADO     0400          2006 WE195         20160707
K06X71X 18.0   0.15 K167V 332.01796  316.59046   50.13368    3.57654  0.2182155  0.28307929   2.2971921  0 E2016-N49    34   6 2002-2016 0.27 M-v 38h MPCADO     0000          2006 XX71          20160707
K06Y02M 17.4   0.15 K167V 207.54888  205.41641  254.94313    6.32138  0.0744068  0.26826065   2.3810293  1 E2016-N49    55   4 2006-2016 0.44 M-v 38h MPCADO     0400          2006 YM2           20160706
K06Y18U 16.1   0.15 K167V 299.86824   99.21969  318.38185   18.72131  0.1618537  0.17268803   3.1937033  0 E2016-N49    51   5 2005-2016 0.32 M-v 38h MPCADO     0400          2006 YU18          20160707
K06Y42P 16.5   0.15 K167V 199.98477  182.70431  295.54967   22.86409  0.0705370  0.26636223   2.3923293  0 E2016-N49    39   6 1996-2016 0.40 M-v 38h MPCADO     0407          2006 YP42          20160707
K07B03J 18.0   0.15 K167V 225.34747  150.13303  294.96427   16.71750  0.0865666  0.36621588   1.9348380  1 E2016-N49    88   4 2007-2016 0.28 M-v 38h MPCADO     0406          2007 BJ3           20160705
K07B07X 17.4   0.15 K167V  25.59150  292.03505  333.02672   17.93931  0.0589393  0.35762223   1.9657112  1 E2016-N49    48   5 2006-2016 0.44 M-v 38h MPCADO     0406          2007 BX7           20160706
K07B38J 16.2   0.15 K167V 325.02910   95.01229  306.17982   24.96038  0.2716634  0.18074168   3.0981124  0 E2016-N49    38   5 2005-2016 0.34 M-v 38h MPCADO     0000          2007 BJ38          20160707
K07D11X 18.6   0.15 K167V 253.18333  123.16876  319.24324   18.47266  0.1119148  0.37321072   1.9105862  1 E2016-N49    41   4 2003-2016 0.38 M-v 38h MPCADO     0006          2007 DX11          20160707
K07EF1X 18.2   0.15 K167V  44.75098   84.94123  160.58269   12.73482  0.2361944  0.23660092   2.5889585  0 E2016-N49    33   6 1999-2016 0.24 M-v 38h MPCADO     0000          2007 EX151         20160707
K07F38A 16.7   0.15 K167V  50.67899   43.68725  173.99968   13.24659  0.1953314  0.22959130   2.6413894  0 E2016-N49    51   7 2003-2016 0.36 M-v 38h MPCADO     0400          2007 FA38          20160707
K07H04M 17.2   0.15 K167V  20.11277   10.49793  264.90286    2.14567  0.1797031  0.23431157   2.6057949  0 E2016-N49    89   8 2004-2016 0.32 M-v 38h MPCADO     0400          2007 HM4           20160705
K07J17E 17.5   0.15 K167V   8.88343   70.43044  221.12331    7.35644  0.2665607  0.22635595   2.6664991  0 E2016-N49    48   5 2003-2016 0.25 M-v 38h MPCADO     0400          2007 JE17          20160707
K07K07H 16.8   0.15 K167V  10.73881  355.04643  297.69102   22.70880  0.5029761  0.22251912   2.6970634  0 E2016-N49   307   3 2007-2016 0.39 M-v 38h MPCADO     0005          2007 KH7           20160707
K07M15A 16.7   0.15 K167V   5.23317  201.59303  117.88676    7.51794  0.1673600  0.22477995   2.6789483  0 E2016-N49    67   6 2003-2016 0.37 M-v 38h MPCADO     0400          2007 MA15          20160707
K07M16U 17.1   0.15 K167V 351.82330  204.12580  133.41137   12.76050  0.2014556  0.23627962   2.5913051  1 E2016-N49    47   6 2007-2016 0.49 M-v 38h MPCADO     0400          2007 MU16          20160707
K07N04Y 16.8   0.15 K167V  58.72720  291.99134  301.80699   27.58943  0.3513426  0.22615657   2.6680660  1 E2016-N49    41   4 2007-2016 0.41 M-v 38h MPCADO     0000          2007 NY4           20160707
K07P05P 16.5   0.15 K167V  38.86798  354.69595  314.35336   13.92165  0.1112265  0.23012900   2.6372734  0 E2016-N49    59   6 2003-2016 0.33 M-v 38h MPCADO     0400          2007 PP5           20160708
K07P43Y 16.4   0.15 K167V 349.31184   48.22548  307.92413   12.09985  0.2056388  0.22304729   2.6928041  1 E2016-N49    59   6 2005-2016 0.48 M-v 38h MPCADO     0400          2007 PY43          20160707
K07Q01V 16.3   0.15 K167V 295.43067   84.98555  291.11691    4.94536  0.0760422  0.21211941   2.7845121  0 E2016-N49    72   7 2003-2016 0.33 M-v 38h MPCADO     0400          2007 QV1           20160705
K07Q05G 17.2   0.15 K167V   7.37855  136.11696  149.62745    8.95851  0.2924998  0.21435074   2.7651544  0 E2016-N49    67   7 2002-2016 0.39 M-v 38h MPCADO     0400          2007 QG5           20160707
K07R11P 16.5   0.15 K167V 331.25034  181.86545  190.15970    8.25053  0.1608563  0.21811822   2.7332211  0 E2016-N49    69   7 2003-2016 0.40 M-v 38h MPCADO     0400          2007 RP11          20160707
K07R13B 17.0   0.15 K167V 359.01206  155.57859  175.86393   19.05376  0.3106425  0.21792051   2.7348739  1 E2016-N49    82   6 1998-2016 0.44 M-v 38h MPCADO     0400          2007 RB13          20160707
K07R31D 16.3   0.15 K167V 324.99157  235.93606  174.91426   25.34165  0.3150547  0.22349026   2.6892446  0 E2016-N49    89   6 2003-2016 0.49 M-v 38h MPCADO     0400          2007 RD31          20160708
K07R34P 16.9   0.15 K167V 314.11245  200.58714  169.74528    8.49139  0.2312529  0.21299026   2.7769170  1 E2016-N49    48   7 2005-2016 0.54 M-v 38h MPCADO     0000          2007 RP34          20160703
K07R35S 17.1   0.15 K167V   7.87603  133.49832  183.82342   11.05456  0.3279374  0.22112350   2.7083998  1 E2016-N49    52   4 2006-2016 0.50 M-v 38h MPCADO     0400          2007 RS35          20160707
K07R50G 17.9   0.15 K167V   6.14930  100.73918  229.62314    5.40401  0.3521253  0.22031878   2.7149908  2 E2016-N49    42   4 2002-2016 0.39 M-v 38h MPCADO     0000          2007 RG50          20160708
K07R50M 16.9   0.15 K167V 336.11605  103.54180  239.46628    6.80961  0.0800579  0.20986632   2.8044060  0 E2016-N49    42   6 2002-2016 0.26 M-v 38h MPCADO     0400          2007 RM50          20160707
K07RE0M 17.2   0.15 K167V 336.31273   31.17894  333.05748    2.73320  0.2604847  0.21653702   2.7465106  1 E2016-N49    58   4 2007-2016 0.46 M-v 38h MPCADO     0000          2007 RM140         20160707
K07S04G 16.9   0.15 K167V 340.92800  180.86563  183.48499   15.85351  0.2094929  0.22042620   2.7141088  0 E2016-N49    46   5 2007-2016 0.43 M-v 38h MPCADO     0000          2007 SG4           20160707
K07T53M 17.5   0.15 K167V 354.73227  284.87598   49.91082    1.79696  0.1754097  0.21014982   2.8018832  0 E2016-N49    31   4 2007-2016 0.23 M-v 38h MPCADO     0000          2007 TM53          20160707
K07TD8U 16.7   0.15 K167V 334.47619   61.60534  316.04938   13.89151  0.1940537  0.21525268   2.7574248  0 E2016-N49    43   5 2003-2016 0.47 M-v 38h MPCADO     0000          2007 TU138         20160707
K07TW8D 17.1   0.15 K167V  21.34261   20.75621  253.48106    7.48075  0.2837927  0.20203915   2.8763762  0 E2016-N49    52   6 2007-2016 0.34 M-v 38h MPCADO     0400          2007 TD328         20160707
K07TX3P 17.2   0.15 K167V 291.07703  173.83974  224.33481   10.21083  0.1473299  0.20192996   2.8774131  0 E2016-N49    60   6 2007-2016 0.35 M-v 38h MPCADO     0400          2007 TP333         20160707
K07U83J 16.9   0.15 K167V 314.29233  136.20339  225.13471    9.71374  0.1428215  0.19998483   2.8960409  1 E2016-N49    52   5 2002-2016 0.31 M-v 38h MPCADO     0000          2007 UJ83          20160702
K07VT5H 16.5   0.15 K167V 235.09309  215.39686  234.27017    9.57861  0.0984424  0.19732541   2.9220033  1 E2016-N49    55   4 2007-2016 0.30 M-v 38h MPCADO     0000          2007 VH295         20160707
K07Y16F 16.3   0.15 K167V 272.03243  132.87396  277.83521    8.35041  0.0831012  0.19109340   2.9851919  0 E2016-N49    54   5 2007-2016 0.38 M-v 38h MPCADO     0400          2007 YF16          20160707
